{
  "type": "FeatureCollection",
  "features": [
    {
      "type": "Feature",
      "properties": {
        "norad_id": 29930,
        "name": "FENGYUN 1C DEB",
        "group": "fengyun-1c-debris",
        "lat": -24.5327987731697,
        "lon": 41.97194299328766,
        "alt_km": 922.5193370718653,
        "timestamp": "2025-12-09T23:33:24.126993+00:00",
        "meta_object_name": "FENGYUN 1C DEB",
        "meta_object_id": "1999-025JC",
        "meta_epoch": "2025-12-09T06:15:47.330208",
        "meta_mean_motion": 14.20811196,
        "meta_eccentricity": 0.0164623,
        "meta_inclination": 99.0445,
        "meta_ra_of_asc_node": 225.4035,
        "meta_arg_of_pericenter": 63.4536,
        "meta_mean_anomaly": 56.587,
        "meta_ephemeris_type": 0,
        "meta_classification_type": "U",
        "meta_norad_cat_id": 29930,
        "meta_element_set_no": 999,
        "meta_rev_at_epoch": 97841,
        "meta_bstar": 0.0003949,
        "meta_mean_motion_dot": 9.32e-06,
        "meta_mean_motion_ddot": 0,
        "tle_line1": "1 29930U 99025JC  25343.26096447  .00000932  00000+0  39490-3 0  9994",
        "tle_line2": "2 29930  99.0445 225.4035 0164623  63.4536  56.5870 14.20811196978419"
      },
      "geometry": {
        "type": "Point",
        "coordinates": [
          41.97194299328766,
          -24.5327987731697
        ]
      }
    },
    {
      "type": "Feature",
      "properties": {
        "norad_id": 29931,
        "name": "FENGYUN 1C DEB",
        "group": "fengyun-1c-debris",
        "lat": 12.511254411864972,
        "lon": 17.376535581024005,
        "alt_km": 880.7036223902078,
        "timestamp": "2025-12-09T23:33:24.127004+00:00",
        "meta_object_name": "FENGYUN 1C DEB",
        "meta_object_id": "1999-025JD",
        "meta_epoch": "2025-12-09T01:31:19.968384",
        "meta_mean_motion": 14.03889532,
        "meta_eccentricity": 0.00326322,
        "meta_inclination": 98.8598,
        "meta_ra_of_asc_node": 18.4652,
        "meta_arg_of_pericenter": 103.6464,
        "meta_mean_anomaly": 311.9683,
        "meta_ephemeris_type": 0,
        "meta_classification_type": "U",
        "meta_norad_cat_id": 29931,
        "meta_element_set_no": 999,
        "meta_rev_at_epoch": 96761,
        "meta_bstar": 0.00018994956,
        "meta_mean_motion_dot": 2.58e-06,
        "meta_mean_motion_ddot": 0,
        "tle_line1": "1 29931U 99025JD  25343.06342556  .00000258  00000+0  18995-3 0  9996",
        "tle_line2": "2 29931  98.8598  18.4652 0032632 103.6464 311.9683 14.03889532967612"
      },
      "geometry": {
        "type": "Point",
        "coordinates": [
          17.376535581024005,
          12.511254411864972
        ]
      }
    },
    {
      "type": "Feature",
      "properties": {
        "norad_id": 29932,
        "name": "FENGYUN 1C DEB",
        "group": "fengyun-1c-debris",
        "lat": -22.264442630830207,
        "lon": -1.6850965901048007,
        "alt_km": 846.5884498252635,
        "timestamp": "2025-12-09T23:33:24.127015+00:00",
        "meta_object_name": "FENGYUN 1C DEB",
        "meta_object_id": "1999-025JE",
        "meta_epoch": "2025-12-08T07:04:36.613344",
        "meta_mean_motion": 14.16755357,
        "meta_eccentricity": 0.0038621,
        "meta_inclination": 98.6342,
        "meta_ra_of_asc_node": 353.1117,
        "meta_arg_of_pericenter": 82.8541,
        "meta_mean_anomaly": 297.4832,
        "meta_ephemeris_type": 0,
        "meta_classification_type": "U",
        "meta_norad_cat_id": 29932,
        "meta_element_set_no": 999,
        "meta_rev_at_epoch": 97521,
        "meta_bstar": 0.00050621811,
        "meta_mean_motion_dot": 9.78e-06,
        "meta_mean_motion_ddot": 0,
        "tle_line1": "1 29932U 99025JE  25342.29486821  .00000978  00000+0  50622-3 0  9997",
        "tle_line2": "2 29932  98.6342 353.1117 0038621  82.8541 297.4832 14.16755357975211"
      },
      "geometry": {
        "type": "Point",
        "coordinates": [
          -1.6850965901048007,
          -22.264442630830207
        ]
      }
    },
    {
      "type": "Feature",
      "properties": {
        "norad_id": 29933,
        "name": "FENGYUN 1C DEB",
        "group": "fengyun-1c-debris",
        "lat": -67.71355997292937,
        "lon": 109.07444107379372,
        "alt_km": 680.125507774661,
        "timestamp": "2025-12-09T23:33:24.127026+00:00",
        "meta_object_name": "FENGYUN 1C DEB",
        "meta_object_id": "1999-025JF",
        "meta_epoch": "2025-12-09T06:05:43.421856",
        "meta_mean_motion": 14.65673612,
        "meta_eccentricity": 0.0004133,
        "meta_inclination": 98.7494,
        "meta_ra_of_asc_node": 86.2289,
        "meta_arg_of_pericenter": 342.4419,
        "meta_mean_anomaly": 71.5331,
        "meta_ephemeris_type": 0,
        "meta_classification_type": "U",
        "meta_norad_cat_id": 29933,
        "meta_element_set_no": 999,
        "meta_rev_at_epoch": 98454,
        "meta_bstar": 0.0048598,
        "meta_mean_motion_dot": 0.00026484,
        "meta_mean_motion_ddot": 0,
        "tle_line1": "1 29933U 99025JF  25343.25397479  .00026484  00000+0  48598-2 0  9993",
        "tle_line2": "2 29933  98.7494  86.2289 0004133 342.4419  71.5331 14.65673612984543"
      },
      "geometry": {
        "type": "Point",
        "coordinates": [
          109.07444107379372,
          -67.71355997292937
        ]
      }
    },
    {
      "type": "Feature",
      "properties": {
        "norad_id": 29934,
        "name": "FENGYUN 1C DEB",
        "group": "fengyun-1c-debris",
        "lat": -59.2942260593873,
        "lon": -164.67863555048814,
        "alt_km": 621.5347831314994,
        "timestamp": "2025-12-09T23:33:24.127036+00:00",
        "meta_object_name": "FENGYUN 1C DEB",
        "meta_object_id": "1999-025JG",
        "meta_epoch": "2025-12-09T09:19:47.340768",
        "meta_mean_motion": 14.63738287,
        "meta_eccentricity": 0.0100604,
        "meta_inclination": 98.904,
        "meta_ra_of_asc_node": 29.9872,
        "meta_arg_of_pericenter": 262.6284,
        "meta_mean_anomaly": 96.3474,
        "meta_ephemeris_type": 0,
        "meta_classification_type": "U",
        "meta_norad_cat_id": 29934,
        "meta_element_set_no": 999,
        "meta_rev_at_epoch": 99723,
        "meta_bstar": 0.0012527071,
        "meta_mean_motion_dot": 6.969e-05,
        "meta_mean_motion_ddot": 0,
        "tle_line1": "1 29934U 99025JG  25343.38874237  .00006969  00000+0  12527-2 0  9999",
        "tle_line2": "2 29934  98.9040  29.9872 0100604 262.6284  96.3474 14.63738287997239"
      },
      "geometry": {
        "type": "Point",
        "coordinates": [
          -164.67863555048814,
          -59.2942260593873
        ]
      }
    },
    {
      "type": "Feature",
      "properties": {
        "norad_id": 29935,
        "name": "FENGYUN 1C DEB",
        "group": "fengyun-1c-debris",
        "lat": 43.97837961845191,
        "lon": -125.4165735617245,
        "alt_km": 837.2375716691095,
        "timestamp": "2025-12-09T23:33:24.127046+00:00",
        "meta_object_name": "FENGYUN 1C DEB",
        "meta_object_id": "1999-025JH",
        "meta_epoch": "2025-12-09T04:31:57.929952",
        "meta_mean_motion": 14.1423514,
        "meta_eccentricity": 0.01500226,
        "meta_inclination": 98.4619,
        "meta_ra_of_asc_node": 45.5732,
        "meta_arg_of_pericenter": 226.3913,
        "meta_mean_anomaly": 197.287,
        "meta_ephemeris_type": 0,
        "meta_classification_type": "U",
        "meta_norad_cat_id": 29935,
        "meta_element_set_no": 999,
        "meta_rev_at_epoch": 97492,
        "meta_bstar": 0.00017468497,
        "meta_mean_motion_dot": 3.3e-06,
        "meta_mean_motion_ddot": 0,
        "tle_line1": "1 29935U 99025JH  25343.18886493  .00000330  00000+0  17468-3 0  9991",
        "tle_line2": "2 29935  98.4619  45.5732 0150022 226.3913 197.2870 14.14235140974929"
      },
      "geometry": {
        "type": "Point",
        "coordinates": [
          -125.4165735617245,
          43.97837961845191
        ]
      }
    },
    {
      "type": "Feature",
      "properties": {
        "norad_id": 29936,
        "name": "FENGYUN 1C DEB",
        "group": "fengyun-1c-debris",
        "lat": -31.59393530580971,
        "lon": 102.72911027754056,
        "alt_km": 834.9705564002552,
        "timestamp": "2025-12-09T23:33:24.127057+00:00",
        "meta_object_name": "FENGYUN 1C DEB",
        "meta_object_id": "1999-025JJ",
        "meta_epoch": "2025-12-09T13:40:11.223840",
        "meta_mean_motion": 14.35305936,
        "meta_eccentricity": 0.01138145,
        "meta_inclination": 98.6562,
        "meta_ra_of_asc_node": 96.9396,
        "meta_arg_of_pericenter": 196.4333,
        "meta_mean_anomaly": 163.3151,
        "meta_ephemeris_type": 0,
        "meta_classification_type": "U",
        "meta_norad_cat_id": 29936,
        "meta_element_set_no": 999,
        "meta_rev_at_epoch": 98885,
        "meta_bstar": 0.00039148755,
        "meta_mean_motion_dot": 1.16e-05,
        "meta_mean_motion_ddot": 0,
        "tle_line1": "1 29936U 99025JJ  25343.56957435  .00001160  00000+0  39149-3 0  9991",
        "tle_line2": "2 29936  98.6562  96.9396 0113814 196.4333 163.3151 14.35305936988853"
      },
      "geometry": {
        "type": "Point",
        "coordinates": [
          102.72911027754056,
          -31.59393530580971
        ]
      }
    }
  ]
}